0 ARIANE 5 DEB (SYLDA)
1 41796U 16060D   19134.92506655 +.00014783 +00000-0 +23616-2 0  9999
2 41796 006.4910 304.5063 6388083 213.4366 081.6042 03.48740542028830
0 ARIANE 5 DEB (SYLDA)
1 41796U 16060D   19135.21115578  .00016644  00000-0  26630-2 0  9999
2 41796   6.4908 304.3062 6387938 213.8327  80.7874  3.48753293 28811
0 ARIANE 5 DEB (SYLDA)
1 41796U 16060D   19135.78333675  .00012948  00000-0  20709-2 0  9995
2 41796   6.4901 303.9061 6387782 214.6241  79.1814  3.48768054 28838
0 SENTINEL 1A DEB
1 41798U 14016B   19135.07917681  .00007515  00000-0  83222-3 0  9997
2 41798  98.1558 176.8545 0061209 126.2298 234.4596 14.86251722146137
0 SENTINEL 1A DEB
1 41804U 14016H   19135.06672000  .00006432  00000-0  77866-3 0  9991
2 41804  98.1678 173.8998 0055203 138.1069 222.4388 14.82925175146011
0 SENTINEL 1A DEB
1 41804U 14016H   19134.05458300 +.00005155 +00000-0 +62586-3 0  9998
2 41804 098.1679 172.8657 0055154 141.2521 219.2668 14.82909266145866
0 SL-12 DEB
1 41805U 06062K   19134.34763218 +.00000087 +00000-0 +27012-3 0  9994
2 41805 065.3306 242.1466 5781149 330.8055 006.5610 04.26632723041151
0 SL-12 DEB
1 41806U 06062L   19134.33441910 -.00000123 +00000-0 -23470-4 0  9994
2 41806 063.9769 253.6233 5863984 007.7606 358.3031 04.12719420041945
0 SL-12 DEB
1 41807U 06062M   19135.17710143  .00015766  00000-0  27677-2 0  9993
2 41807  64.5347 222.4810 5781040 350.1281   2.1919  4.37788151 43806
0 FENGYUN 1C DEB
1 41823U 99025EYA 19135.09519500  .00000721  00000-0  41565-3 0  9995
2 41823  98.9083 195.5251 0063261 231.0772 128.4749 14.11308306133688
0 FENGYUN 1C DEB
1 41823U 99025EYA 19134.10265152 +.00000691 +00000-0 +39945-3 0  9992
2 41823 098.9084 194.5401 0063161 233.9071 125.6242 14.11306756133546
0 FENGYUN 1C DEB
1 41824U 99025EYB 19134.10899465 +.00000729 +00000-0 +42058-3 0  9994
2 41824 098.9038 194.0930 0063959 234.4916 125.0279 14.11226570133535
0 FENGYUN 1C DEB
1 41829U 99025EYG 19134.12243071 +.00000606 +00000-0 +35107-3 0  9998
2 41829 098.9085 194.9664 0064795 231.8504 127.6818 14.11628803132876
0 FENGYUN 1C DEB
1 41829U 99025EYG 19135.11474829  .00000646  00000-0  37229-3 0  9996
2 41829  98.9085 195.9518 0064896 229.0240 130.5306 14.11630315133016
0 FENGYUN 1C DEB
1 41831U 99025EYJ 19135.14710461  .00000783  00000-0  44707-3 0  9998
2 41831  98.9063 195.7351 0065021 229.0771 130.4759 14.11575294132584
0 FENGYUN 1C DEB
1 41831U 99025EYJ 19134.08386609 +.00000767 +00000-0 +43842-3 0  9994
2 41831 098.9064 194.6797 0064903 232.1046 127.4245 14.11573248132432
0 FENGYUN 1C DEB
1 41832U 99025EYK 19134.11419937 +.00000656 +00000-0 +38013-3 0  9991
2 41832 098.9023 194.1273 0064376 234.1399 125.3782 14.11334328133415
0 FENGYUN 1C DEB
1 41832U 99025EYK 19135.10672345  .00000732  00000-0  42137-3 0  9992
2 41832  98.9022 195.1117 0064475 231.3046 128.2347 14.11336146133543
0 BANXING-2
1 41834U 16057H   19135.18382543  .00132463  15794-4  21413-3 0  9995
2 41834  42.7766  37.8563 0014882 217.6851 269.3220 16.02609217147346
0 BANXING-2
1 41834U 16057H   19134.92196370 +.00126691 +15160-4 +20588-3 0  9992
2 41834 042.7767 039.5151 0015090 214.4229 199.9116 16.02529315147303
0 BANXING-2
1 41834U 16057H   19135.85505510  .00152278  18197-4  24234-3 0  9990
2 41834  42.7760  33.5987 0014549 222.4027 182.4131 16.02838091147454
0 DMSP 5D-2 F12 DEB
1 41835U 94057F   19135.66329309  .00000153  00000-0  97541-4 0  9992
2 41835  99.0778 172.3469 0019947  92.7090 267.6368 14.17861913132254
0 HIMAWARI 9
1 41836U 16064A   19134.88219351 -.00000290 +00000-0 +00000-0 0  9996
2 41836 000.0116 352.1664 0000931 079.7405 258.7704 01.00270693009217
0 HIMAWARI 9
1 41836U 16064A   19134.95381418 -.00000289  00000-0  00000+0 0  9995
2 41836   0.0120 353.8368 0000935  77.8980 284.7961  1.00270673  9337
0 H-2A R/B
1 41837U 16064B   19134.36296110 +.00011784 +00000-0 +88686-3 0  9996
2 41837 022.2708 148.6189 7136371 138.7230 306.1734 02.49293906022322
0 SJ-17
1 41838U 16065A   19134.97970353 -.00000277 +00000-0 +00000-0 0  9990
2 41838 000.6880 096.5628 0002736 338.1768 244.3128 01.00277456009250
0 SJ-17
1 41838U 16065A   19135.77896957 -.00000276  00000-0  00000+0 0  9994
2 41838   0.6899  96.5593 0002753 338.4242 172.6096  1.00277300  9266
0 CZ-5 R/B
1 41839U 16065B   19134.68411279  .00011379  00000-0  57924-3 0  9990
2 41839  19.4521  49.0500 6411570 130.8928 305.3928  3.49287130 29729
0 YZ-2 R/B
1 41840U 16065C   19134.46500945 -.00000129 +00000-0 +00000-0 0  9999
2 41840 002.5261 092.8556 0496709 169.1246 191.9197 00.93473670008637
0 XPNAV-1
1 41841U 16066A   19134.91575973 +.00000810 +00000-0 +38124-4 0  9992
2 41841 097.4083 141.2904 0013941 313.3574 133.9802 15.22336576139296
0 XPNAV-1
1 41841U 16066A   19135.11284161  .00000683  00000-0  32624-4 0  9998
2 41841  97.4082 141.4847 0013860 312.5561 134.1807 15.22336635139328
0 XPNAV-1
1 41841U 16066A   19135.70480749  .00000815  00000-0  38317-4 0  9995
2 41841  97.4086 142.0684 0013941 310.7096 138.1687 15.22337996139412
0 XPNAV-1
1 41841U 16066A   19135.37951297  .00000670  00000-0  32074-4 0  9992
2 41841  97.4082 141.7475 0013821 311.4766 155.7953 15.22337188139369
0 XIAOXIANG 1
1 41842U 16066B   19135.73378311  .00000883  00000-0  40107-4 0  9995
2 41842  97.4055 142.9304 0013392 313.5590 133.1127 15.23344589139485
0 XIAOXIANG 1
1 41842U 16066B   19135.40954529  .00001174  00000-0  52323-4 0  9997
2 41842  97.4060 142.6110 0013307 314.7549 154.9276 15.23345259139432
0 XIAOXIANG 1
1 41842U 16066B   19135.06925294  .00001007  00000-0  45288-4 0  9993
2 41842  97.4054 142.2747 0013300 315.7285  88.9714 15.23343847139386
0 PINA 2A
1 41843U 16066C   19135.20261135  .00000789  00000-0  36237-4 0  9997
2 41843  97.4064 142.5189 0015074 308.8266 181.8974 15.23252399139408
0 PINA 2A
1 41843U 16066C   19135.90864756  .00001174  00000-0  52421-4 0  9994
2 41843  97.4064 143.2157 0015028 305.7647  94.1803 15.23254549139517
0 PINA 2A
1 41843U 16066C   19135.52528744  .00000587  00000-0  27741-4 0  9990
2 41843  97.4061 142.8372 0015013 307.3801 151.6738 15.23252644139455
0 PINA 2B
1 41844U 16066D   19135.43835978  .00001483  00000-0  63655-4 0  9991
2 41844  97.4056 143.2154 0013719 313.7281 176.4098 15.24225216139479
0 PINA 2B
1 41844U 16066D   19135.69366236  .00001435  00000-0  61687-4 0  9995
2 41844  97.4056 143.4676 0013752 313.0252 137.1113 15.24225587139516
0 PINA 2B
1 41844U 16066D   19135.03614046  .00001241  00000-0  53740-4 0  9994
2 41844  97.4055 142.8180 0013758 315.6403 128.8482 15.24223048139415
0 PINA 2B
1 41844U 16066D   19134.90502954 +.00001301 +00000-0 +56206-4 0  9990
2 41844 097.4055 142.6886 0013748 316.0343 129.4834 15.24222764139392
0 LISHUI 1-01
1 41845U 16066E   19135.17528929  .00006405  00000-0  88352-3 0  9997
2 41845  98.7473 191.2201 0297685 294.2703  62.7686 14.52420061132233
0 LISHUI 1-01
1 41845U 16066E   19135.86418266  .00006872  00000-0  94657-3 0  9998
2 41845  98.7467 191.9392 0297735 292.1960  64.7880 14.52430369132333
0 LISHUI 1-01
1 41845U 16066E   19135.51973653  .00006416  00000-0  88492-3 0  9990
2 41845  98.7472 191.5798 0297653 293.2138  63.7982 14.52424678132285
0 CZ-11 DEB
1 41846U 16066F   19134.93883207 +.00000296 +00000-0 +55841-4 0  9994
2 41846 098.7147 174.5732 0367136 341.9003 016.9391 14.37549774131562
0 CZ-11 R/B
1 41847U 16066G   19135.16612522  .00000079  00000-0  23010-4 0  9993
2 41847  98.7093 175.3319 0365478 337.8437  20.7293 14.37980198132031
0 WORLDVIEW-4
1 41848U 16067A   19135.90608415 -.00001365  00000-0 -10086-3 0  9992
2 41848  97.8712 215.8363 0061356 146.7244 213.7832 14.99832611135850
0 RAVAN
1 41849U 16067B   19135.19665944  .00000608  00000-0  56380-4 0  9999
2 41849  97.9172 233.8147 0009243 133.2273 226.9722 14.98187690136834
0 RAVAN
1 41849U 16067B   19134.26161732 +.00000452 +00000-0 +43282-4 0  9996
2 41849 097.9173 232.8661 0009169 135.8498 224.3457 14.98185941136697
0 CELTEE 1
1 41850U 16067C   19134.24646583 -.00000289 +00000-0 -19871-4 0  9995
2 41850 097.9149 231.6304 0009628 134.8579 225.3426 14.96993906136628
0 CELTEE 1
1 41850U 16067C   19135.18225230 -.00000215  00000-0 -13377-4 0  9995
2 41850  97.9149 232.5777 0009651 132.3505 227.8535 14.96993995136761
0 OPTICUBE 04
1 41851U 16067D   19135.18562422 -.00000248  00000-0 -16390-4 0  9997
2 41851  97.9138 232.3852 0009717 134.5498 225.6518 14.96793644136755
0 OPTICUBE 04
1 41851U 16067D   19134.85136992 -.00000292 +00000-0 -20195-4 0  9996
2 41851 097.9138 232.0470 0009698 135.4505 224.7498 14.96793646136709
0 AEROCUBE 8D
1 41852U 16067E   19134.85193163 -.00000092 +00000-0 -27571-5 0  9994
2 41852 097.9149 231.8728 0010514 136.0852 224.1206 14.96694599136681
0 AEROCUBE 8D
1 41852U 16067E   19135.18620804 -.00000039  00000-0  19185-5 0  9990
2 41852  97.9149 232.2110 0010531 135.1687 225.0387 14.96694777136730
0 AEROCUBE 8C
1 41853U 16067F   19135.20831795  .00000725  00000-0  68834-4 0  9992
2 41853  97.9147 232.1720 0011229 136.2803 223.9309 14.96658256136735
0 PROMETHEUS 2-1
1 41854U 16067G   19135.18052567  .00000059  00000-0  10426-4 0  9996
2 41854  97.9159 232.2634 0011209 135.6462 224.5659 14.96866980136736
0 PROMETHEUS 2-1
1 41854U 16067G   19134.84628785 +.00000009 +00000-0 +60451-5 0  9998
2 41854 097.9159 231.9251 0011201 136.5515 223.6590 14.96866612136688
0 PROMETHEUS 2-3
1 41855U 16067H   19134.84873980 +.00000069 +00000-0 +11314-4 0  9997
2 41855 097.9160 231.9420 0011351 137.2375 222.9732 14.96871095136688
0 PROMETHEUS 2-3
1 41855U 16067H   19135.18297675  .00000123  00000-0  15991-4 0  9992
2 41855  97.9160 232.2803 0011362 136.3289 223.8833 14.96871443136738
